[{"OBJECT_NAME":"SITRO-AIS 5 (KATYS)","OBJECT_ID":"2023-091L","EPOCH":"2026-03-09T22:36:44.932608","MEAN_MOTION":15.27079182,"ECCENTRICITY":0.00133776,"INCLINATION":97.5176,"RA_OF_ASC_NODE":132.0172,"ARG_OF_PERICENTER":94.5677,"MEAN_ANOMALY":265.709,"EPHEMERIS_TYPE":0,"CLASSIFICATION_TYPE":"U","NORAD_CAT_ID":57176,"ELEMENT_SET_NO":999,"REV_AT_EPOCH":14918,"BSTAR":0.00057530772,"MEAN_MOTION_DOT":0.00015262,"MEAN_MOTION_DDOT":0},{"OBJECT_NAME":"STARLINK-30501","OBJECT_ID":"2023-147E","EPOCH":"2026-03-09T22:00:01.999584","MEAN_MOTION":15.26782053,"ECCENTRICITY":0.00024337,"INCLINATION":43.0008,"RA_OF_ASC_NODE":323.7294,"ARG_OF_PERICENTER":278.1889,"MEAN_ANOMALY":131.7473,"EPHEMERIS_TYPE":0,"CLASSIFICATION_TYPE":"U","NORAD_CAT_ID":57917,"ELEMENT_SET_NO":999,"REV_AT_EPOCH":578,"BSTAR":0.00027530446,"MEAN_MOTION_DOT":7.141e-5,"MEAN_MOTION_DDOT":0}]
